CCSDS_OMM_VERS,COMMENT,CREATION_DATE,ORIGINATOR,OBJECT_NAME,OBJECT_ID,CENTER_NAME,REF_FRAME,TIME_SYSTEM,MEAN_ELEMENT_THEORY,EPOCH,MEAN_MOTION,ECCENTRICITY,INCLINATION,RA_OF_ASC_NODE,ARG_OF_PERICENTER,MEAN_ANOMALY,EPHEMERIS_TYPE,CLASSIFICATION_TYPE,NORAD_CAT_ID,ELEMENT_SET_NO,REV_AT_EPOCH,BSTAR,MEAN_MOTION_DOT,MEAN_MOTION_DDOT,SEMIMAJOR_AXIS,PERIOD,APOAPSIS,PERIAPSIS,OBJECT_TYPE,RCS_SIZE,COUNTRY_CODE,LAUNCH_DATE,SITE,DECAY_DATE,DECAYED,FILE,GP_ID,TLE_LINE0,TLE_LINE1,TLE_LINE2,height_km,latitude,longitude,velocity_kms,id
2.0,GENERATED VIA SPACE-TRACK.ORG API,2022-11-30T17:18:05,18 SPCS,STARLINK-2410,2021-018AQ,EARTH,TEME,UTC,SGP4,2022-11-30T02:29:22.676352,15.06388106,0.0001617,53.0543,218.8247,63.8638,296.2517,0,U,47825,999,9639,1.8369e-05,-8e-08,0.0,6925.385,95.593,548.37,546.13,PAYLOAD,LARGE,US,2021-03-11,AFETR,,0,3675646,219173615,0 STARLINK-2410,1 47825U 21018AQ  22334.10373468 -.00000008  00000-0  18369-4 0  9994,2 47825  53.0543 218.8247 0001617  63.8638 296.2517 15.06388106 96396,548.0221971425326,4.383119287315072,59.264777681881576,7.589306495096519,6053aba67554c9000609a672
2.0,GENERATED VIA SPACE-TRACK.ORG API,2022-11-30T17:18:05,18 SPCS,STARLINK-2409,2021-018AP,EARTH,TEME,UTC,SGP4,2022-11-30T10:00:32.035680,15.06388789,0.0001654,53.0545,217.4177,62.7107,297.405,0,U,47824,999,9643,2.5203e-05,9.4e-07,0.0,6925.383,95.593,548.393,546.102,PAYLOAD,LARGE,US,2021-03-11,AFETR,,0,3675646,219174865,0 STARLINK-2409,1 47824U 21018AP  22334.41703745  .00000094  00000-0  25203-4 0  9991,2 47824  53.0545 217.4177 0001654  62.7107 297.4050 15.06388789 96431,566.6318256296463,-52.98435845498692,159.80506485011807,7.577104650624037,6053aba67554c9000609a674
2.0,GENERATED VIA SPACE-TRACK.ORG API,2022-11-30T14:46:14,18 SPCS,STARLINK-2432,2021-018BF,EARTH,TEME,UTC,SGP4,2022-11-29T21:45:24.992928,15.06399096,0.0001727,53.0533,199.7091,59.8375,300.2785,0,U,47840,999,9630,0.00032591,4.576e-05,0.0,6925.351,95.592,548.412,546.02,PAYLOAD,LARGE,US,2021-03-11,AFETR,,0,3675068,219139436,0 STARLINK-2432,1 47840U 21018BF  22333.90653927  .00004576  00000-0  32591-3 0  9994,2 47840  53.0533 199.7091 0001727  59.8375 300.2785 15.06399096 96305,562.9981007548067,-44.838124765685755,-170.28091483092123,7.579231961341218,6053aba67554c9000609a673
2.0,GENERATED VIA SPACE-TRACK.ORG API,2022-11-30T17:18:05,18 SPCS,STARLINK-2394,2021-018AC,EARTH,TEME,UTC,SGP4,2022-11-30T00:35:15.595584,15.06393511,0.0001545,53.0536,199.1824,74.3748,285.7411,0,U,47813,999,9671,0.0002079,2.816e-05,0.0,6925.368,95.593,548.303,546.163,PAYLOAD,LARGE,US,2021-03-11,AFETR,,0,3675646,219173113,0 STARLINK-2394,1 47813U 21018AC  22334.02448606  .00002816  00000-0  20790-3 0  9997,2 47813  53.0536 199.1824 0001545  74.3748 285.7411 15.06393511 96714,563.9451493738916,-46.15490695744699,93.72331229515052,7.578508162214819,6053aba67554c9000609a67b
2.0,GENERATED VIA SPACE-TRACK.ORG API,2022-11-30T17:18:05,18 SPCS,STARLINK-2402,2021-018AJ,EARTH,TEME,UTC,SGP4,2022-11-30T04:14:09.382272,15.06398651,0.0002001,53.0553,218.4793,49.8986,310.2178,0,U,47819,999,9646,3.7639e-05,2.79e-06,0.0,6925.353,95.592,548.603,545.832,PAYLOAD,MEDIUM,US,2021-03-11,AFETR,,0,3675646,219174617,0 STARLINK-2402,1 47819U 21018AJ  22334.17649748  .00000279  00000-0  37639-4 0  9991,2 47819  53.0553 218.4793 0002001  49.8986 310.2178 15.06398651 96464,549.0685610240316,31.249690661445833,35.54212246258544,7.591550290711989,6053aba67554c9000609a679
2.0,GENERATED VIA SPACE-TRACK.ORG API,2022-11-30T17:18:05,18 SPCS,STARLINK-2399,2021-018AF,EARTH,TEME,UTC,SGP4,2022-11-30T02:08:07.614528,15.06399611,0.0001809,53.0556,218.8818,63.7394,296.378,0,U,47816,999,9638,8.5855e-05,9.97e-06,0.0,6925.35,95.592,548.468,545.962,PAYLOAD,LARGE,US,2021-03-11,AFETR,,0,3675646,219174864,0 STARLINK-2399,1 47816U 21018AF  22334.08897702  .00000997  00000-0  85855-4 0  9993,2 47816  53.0556 218.8818 0001809  63.7394 296.3780 15.06399611 96380,565.845531542679,-50.416616649456,127.33967612025724,7.577379570434557,6053aba67554c9000609a678
2.0,GENERATED VIA SPACE-TRACK.ORG API,2022-11-30T17:18:05,18 SPCS,STARLINK-2416,2021-018AU,EARTH,TEME,UTC,SGP4,2022-11-30T10:25:44.981760,15.06393496,0.0001561,53.0553,227.3317,63.0539,297.061,0,U,47829,999,9629,0.00017885,2.383e-05,0.0,6925.368,95.593,548.315,546.152,PAYLOAD,MEDIUM,US,2021-03-11,AFETR,,0,3675646,219173115,0 STARLINK-2416,1 47829U 21018AU  22334.43454840  .00002383  00000-0  17885-3 0  9996,2 47829  53.0553 227.3317 0001561  63.0539 297.0610 15.06393496 96294,548.5238963759293,0.35819902231087275,72.27595195395875,7.588670418452646,6053aba67554c9000609a67c
2.0,GENERATED VIA SPACE-TRACK.ORG API,2022-11-30T17:18:05,18 SPCS,STARLINK-2393,2021-018AB,EARTH,TEME,UTC,SGP4,2022-11-30T10:31:03.854784,15.06382257,0.0001858,53.0544,227.3065,54.0256,306.0905,0,U,47812,999,9629,-2.9524e-05,-7.21e-06,0.0,6925.403,95.593,548.555,545.981,PAYLOAD,LARGE,US,2021-03-11,AFETR,,0,3675646,219174363,0 STARLINK-2393,1 47812U 21018AB  22334.43823906 -.00000721  00000-0 -29524-4 0  9991,2 47812  53.0544 227.3065 0001858  54.0256 306.0905 15.06382257 96292,547.8126555223962,16.390453082120978,59.831168658676624,7.590501876288375,6053aba67554c9000609a67e
2.0,GENERATED VIA SPACE-TRACK.ORG API,2022-11-30T17:18:05,18 SPCS,STARLINK-2422,2021-018AX,EARTH,TEME,UTC,SGP4,2022-11-30T01:20:22.006464,15.06390582,0.0002077,53.0554,219.0348,47.9447,312.1718,0,U,47832,999,9638,0.00010221,1.241e-05,0.0,6925.377,95.593,548.681,545.804,PAYLOAD,LARGE,US,2021-03-11,AFETR,,0,3675646,219174866,0 STARLINK-2422,1 47832U 21018AX  22334.05581026  .00001241  00000-0  10221-3 0  9994,2 47832  53.0554 219.0348 0002077  47.9447 312.1718 15.06390582 96384,551.8757894581531,50.51159909709881,-52.267912202388764,7.592719281816165,6053aba67554c9000609a67d
2.0,GENERATED VIA SPACE-TRACK.ORG API,2022-11-30T14:36:14,18 SPCS,STARLINK-2429,2021-018BD,EARTH,TEME,UTC,SGP4,2022-11-30T09:34:01.283808,15.06375003,0.0002212,53.0541,217.5026,48.4493,311.6686,0,U,47838,999,9610,0.00053472,7.687e-05,0.0,6925.425,95.594,548.822,545.758,PAYLOAD,MEDIUM,US,2021-03-11,AFETR,,0,3674924,219135557,0 STARLINK-2429,1 47838U 21018BD  22334.39862597  .00007687  00000-0  53472-3 0  9997,2 47838  53.0541 217.5026 0002212  48.4493 311.6686 15.06375003 96109,548.4709452864008,24.85144591241535,57.5076149688331,7.59104007089798,6053aba67554c9000609a686
2.0,GENERATED VIA SPACE-TRACK.ORG API,2022-11-30T06:56:14,18 SPCS,STARLINK-2408,2021-018AN,EARTH,TEME,UTC,SGP4,2022-11-30T00:41:51.044928,15.06397436,0.0001798,53.0563,219.1447,57.766,302.3503,0,U,47823,999,9604,1.7138e-05,-2.6e-07,0.0,6925.356,95.592,548.467,545.976,PAYLOAD,LARGE,US,2021-03-11,AFETR,,0,3674063,219119638,0 STARLINK-2408,1 47823U 21018AN  22334.02906302 -.00000026  00000-0  17138-4 0  9995,2 47823  53.0563 219.1447 0001798  57.7660 302.3503 15.06397436 96041,548.4165816785571,-5.219710490968306,-106.15893181626426,7.588889371152938,6053aba67554c9000609a680
2.0,GENERATED VIA SPACE-TRACK.ORG API,2022-11-30T17:18:05,18 SPCS,STARLINK-2407,2021-018AM,EARTH,TEME,UTC,SGP4,2022-11-30T09:52:32.793888,15.06383426,0.0001656,53.0563,227.4248,71.2383,288.8786,0,U,47822,999,9630,5.3541e-05,5.16e-06,0.0,6925.399,95.593,548.411,546.118,PAYLOAD,LARGE,US,2021-03-11,AFETR,,0,3675646,219173866,0 STARLINK-2407,1 47822U 21018AM  22334.41149067  .00000516  00000-0  53541-4 0  9995,2 47822  53.0563 227.4248 0001656  71.2383 288.8786 15.06383426 96301,561.6806449784044,-41.38122190272817,-148.68473803030918,7.579932947051784,6053aba67554c9000609a687
2.0,GENERATED VIA SPACE-TRACK.ORG API,2022-11-30T17:18:05,18 SPCS,STARLINK-2385,2021-018T,EARTH,TEME,UTC,SGP4,2022-11-30T08:11:42.999360,15.063976,0.0001936,53.0532,197.7541,49.6186,310.4972,0,U,47804,999,9670,0.00020529,2.777e-05,0.0,6925.356,95.592,548.562,545.88,PAYLOAD,LARGE,US,2021-03-11,AFETR,,0,3675646,219174362,0 STARLINK-2385,1 47804U 21018T   22334.34146990  .00002777  00000-0  20529-3 0  9999,2 47804  53.0532 197.7541 0001936  49.6186 310.4972 15.06397600 96705,555.5518515861204,-28.166672156271364,-161.03461565627504,7.58384331389626,6053aba67554c9000609a688
2.0,GENERATED VIA SPACE-TRACK.ORG API,2022-11-30T14:46:14,18 SPCS,STARLINK-2435,2021-018BJ,EARTH,TEME,UTC,SGP4,2022-11-30T09:25:22.663488,15.06383157,0.0001725,53.0539,222.5276,67.142,292.9751,0,U,47843,999,9603,6.9562e-06,-1.78e-06,0.0,6925.4,95.593,548.46,546.071,PAYLOAD,LARGE,US,2021-03-11,AFETR,,0,3675069,219139458,0 STARLINK-2435,1 47843U 21018BJ  22334.39262342 -.00000178  00000-0  69562-5 0  9993,2 47843  53.0539 222.5276 0001725  67.1420 292.9751 15.06383157 96036,548.7161208983152,-0.8299213753596771,83.39482177544672,7.588481835473526,6053aba67554c9000609a68a
2.0,GENERATED VIA SPACE-TRACK.ORG API,2022-11-30T17:18:05,18 SPCS,STARLINK-2406,2021-018AL,EARTH,TEME,UTC,SGP4,2022-11-30T09:39:18.848736,15.06387399,0.0001574,53.0544,217.4905,73.6405,286.4757,0,U,47821,999,9643,0.00012138,1.526e-05,0.0,6925.387,95.593,548.342,546.162,PAYLOAD,LARGE,US,2021-03-11,AFETR,,0,3675646,219173114,0 STARLINK-2406,1 47821U 21018AL  22334.40230149  .00001526  00000-0  12138-3 0  9993,2 47821  53.0544 217.4905 0001574  73.6405 286.4757 15.06387399 96437,548.6570320688734,-4.63349185457231,-120.9136643201072,7.5886187887592484,6053aba67554c9000609a68e
2.0,GENERATED VIA SPACE-TRACK.ORG API,2022-11-30T17:18:05,18 SPCS,STARLINK-2446,2021-018BK,EARTH,TEME,UTC,SGP4,2022-11-30T01:25:41.212992,15.0638747,0.0001557,53.0535,219.0189,59.9658,300.1485,0,U,47844,999,9638,0.00015151,1.975e-05,0.0,6925.387,95.593,548.33,546.174,PAYLOAD,LARGE,US,2021-03-11,AFETR,,0,3675646,219174367,0 STARLINK-2446,1 47844U 21018BK  22334.05950478  .00001975  00000-0  15151-3 0  9999,2 47844  53.0535 219.0189 0001557  59.9658 300.1485 15.06387470 96388,549.9085600858307,40.67122023252658,-77.45952923771797,7.59266150804359,6053aba67554c9000609a689
